{
  "type": "FeatureCollection",
  "features": [
    {
      "type": "Feature",
      "properties": {
        "norad_id": 37108,
        "name": "COSMOS 2251 DEB",
        "group": "cosmos-2251-debris",
        "lat": -64.04589315335801,
        "lon": -79.86022827338812,
        "alt_km": 783.0692109508427,
        "timestamp": "2025-12-21T14:40:48.316294+00:00",
        "meta_object_name": "COSMOS 2251 DEB",
        "meta_object_id": "1993-036BGE",
        "meta_epoch": "2025-12-19T14:53:35.707488",
        "meta_mean_motion": 14.41350949,
        "meta_eccentricity": 0.00906536,
        "meta_inclination": 74.0446,
        "meta_ra_of_asc_node": 67.8256,
        "meta_arg_of_pericenter": 142.8208,
        "meta_mean_anomaly": 217.9273,
        "meta_ephemeris_type": 0,
        "meta_classification_type": "U",
        "meta_norad_cat_id": 37108,
        "meta_element_set_no": 999,
        "meta_rev_at_epoch": 85606,
        "meta_bstar": 0.00071158692,
        "meta_mean_motion_dot": 2.393e-05,
        "meta_mean_motion_ddot": 0,
        "tle_line1": "1 37108U 93036BGE 25353.62055217  .00002393  00000+0  71159-3 0  9998",
        "tle_line2": "2 37108  74.0446  67.8256 0090653 142.8208 217.9273 14.41350949856064"
      },
      "geometry": {
        "type": "Point",
        "coordinates": [
          -79.86022827338812,
          -64.04589315335801
        ]
      }
    },
    {
      "type": "Feature",
      "properties": {
        "norad_id": 37126,
        "name": "COSMOS 2251 DEB",
        "group": "cosmos-2251-debris",
        "lat": 70.74102798415556,
        "lon": 32.61765043616588,
        "alt_km": 703.5854465132707,
        "timestamp": "2025-12-21T14:40:48.316304+00:00",
        "meta_object_name": "COSMOS 2251 DEB",
        "meta_object_id": "1993-036BGY",
        "meta_epoch": "2025-12-20T05:42:55.988064",
        "meta_mean_motion": 14.73095826,
        "meta_eccentricity": 0.012286,
        "meta_inclination": 73.953,
        "meta_ra_of_asc_node": 339.8407,
        "meta_arg_of_pericenter": 216.3855,
        "meta_mean_anomaly": 142.8921,
        "meta_ephemeris_type": 0,
        "meta_classification_type": "U",
        "meta_norad_cat_id": 37126,
        "meta_element_set_no": 999,
        "meta_rev_at_epoch": 8209,
        "meta_bstar": 0.00014955,
        "meta_mean_motion_dot": 1.046e-05,
        "meta_mean_motion_ddot": 0,
        "tle_line1": "1 37126U 93036BGY 25354.23814801  .00001046  00000+0  14955-3 0  9993",
        "tle_line2": "2 37126  73.9530 339.8407 0122860 216.3855 142.8921 14.73095826 82092"
      },
      "geometry": {
        "type": "Point",
        "coordinates": [
          32.61765043616588,
          70.74102798415556
        ]
      }
    },
    {
      "type": "Feature",
      "properties": {
        "norad_id": 37132,
        "name": "COSMOS 2251 DEB",
        "group": "cosmos-2251-debris",
        "lat": -67.28901379143213,
        "lon": 173.311991510309,
        "alt_km": 639.617569080784,
        "timestamp": "2025-12-21T14:40:48.316314+00:00",
        "meta_object_name": "COSMOS 2251 DEB",
        "meta_object_id": "1993-036BHE",
        "meta_epoch": "2025-12-20T21:08:27.663072",
        "meta_mean_motion": 14.77927628,
        "meta_eccentricity": 0.0040179,
        "meta_inclination": 74.0011,
        "meta_ra_of_asc_node": 218.0264,
        "meta_arg_of_pericenter": 11.8256,
        "meta_mean_anomaly": 348.3853,
        "meta_ephemeris_type": 0,
        "meta_classification_type": "U",
        "meta_norad_cat_id": 37132,
        "meta_element_set_no": 999,
        "meta_rev_at_epoch": 62536,
        "meta_bstar": 0.00051189,
        "meta_mean_motion_dot": 3.704e-05,
        "meta_mean_motion_ddot": 0,
        "tle_line1": "1 37132U 93036BHE 25354.88087573  .00003704  00000+0  51189-3 0  9992",
        "tle_line2": "2 37132  74.0011 218.0264 0040179  11.8256 348.3853 14.77927628625367"
      },
      "geometry": {
        "type": "Point",
        "coordinates": [
          173.311991510309,
          -67.28901379143213
        ]
      }
    },
    {
      "type": "Feature",
      "properties": {
        "norad_id": 37270,
        "name": "COSMOS 2251 DEB",
        "group": "cosmos-2251-debris",
        "lat": -73.63223618689382,
        "lon": -117.36578439150557,
        "alt_km": 880.0390417295093,
        "timestamp": "2025-12-21T14:40:48.316324+00:00",
        "meta_object_name": "COSMOS 2251 DEB",
        "meta_object_id": "1993-036BHJ",
        "meta_epoch": "2025-12-12T22:45:06.098400",
        "meta_mean_motion": 13.59808663,
        "meta_eccentricity": 0.03985351,
        "meta_inclination": 73.9378,
        "meta_ra_of_asc_node": 335.5481,
        "meta_arg_of_pericenter": 347.3958,
        "meta_mean_anomaly": 11.7404,
        "meta_ephemeris_type": 0,
        "meta_classification_type": "U",
        "meta_norad_cat_id": 37270,
        "meta_element_set_no": 999,
        "meta_rev_at_epoch": 77072,
        "meta_bstar": 0.0064936549,
        "meta_mean_motion_dot": 8.148e-05,
        "meta_mean_motion_ddot": 0,
        "tle_line1": "1 37270U 93036BHJ 25346.94798725  .00008148  00000+0  64937-2 0  9992",
        "tle_line2": "2 37270  73.9378 335.5481 0398535 347.3958  11.7404 13.59808663770728"
      },
      "geometry": {
        "type": "Point",
        "coordinates": [
          -117.36578439150557,
          -73.63223618689382
        ]
      }
    },
    {
      "type": "Feature",
      "properties": {
        "norad_id": 37278,
        "name": "COSMOS 2251 DEB",
        "group": "cosmos-2251-debris",
        "lat": -73.76649049665143,
        "lon": -114.61663757261277,
        "alt_km": 938.9113445511521,
        "timestamp": "2025-12-21T14:40:48.316335+00:00",
        "meta_object_name": "COSMOS 2251 DEB",
        "meta_object_id": "1993-036BHS",
        "meta_epoch": "2025-12-04T09:26:36.152736",
        "meta_mean_motion": 14.15029915,
        "meta_eccentricity": 0.029998,
        "meta_inclination": 73.7864,
        "meta_ra_of_asc_node": 4.3592,
        "meta_arg_of_pericenter": 188.2556,
        "meta_mean_anomaly": 234.4903,
        "meta_ephemeris_type": 0,
        "meta_classification_type": "U",
        "meta_norad_cat_id": 37278,
        "meta_element_set_no": 999,
        "meta_rev_at_epoch": 63711,
        "meta_bstar": 0.0023061,
        "meta_mean_motion_dot": 6.884e-05,
        "meta_mean_motion_ddot": 0,
        "tle_line1": "1 37278U 93036BHS 25338.39347399  .00006884  00000+0  23061-2 0  9995",
        "tle_line2": "2 37278  73.7864   4.3592 0299980 188.2556 234.4903 14.15029915637119"
      },
      "geometry": {
        "type": "Point",
        "coordinates": [
          -114.61663757261277,
          -73.76649049665143
        ]
      }
    },
    {
      "type": "Feature",
      "properties": {
        "norad_id": 37280,
        "name": "COSMOS 2251 DEB",
        "group": "cosmos-2251-debris",
        "lat": -12.672348977443615,
        "lon": 37.51803014948451,
        "alt_km": 925.5115129730912,
        "timestamp": "2025-12-21T14:40:48.316346+00:00",
        "meta_object_name": "COSMOS 2251 DEB",
        "meta_object_id": "1993-036BHU",
        "meta_epoch": "2025-12-20T20:08:10.131360",
        "meta_mean_motion": 14.19354674,
        "meta_eccentricity": 0.0130313,
        "meta_inclination": 74.0316,
        "meta_ra_of_asc_node": 42.5901,
        "meta_arg_of_pericenter": 169.4803,
        "meta_mean_anomaly": 190.9117,
        "meta_ephemeris_type": 0,
        "meta_classification_type": "U",
        "meta_norad_cat_id": 37280,
        "meta_element_set_no": 999,
        "meta_rev_at_epoch": 57438,
        "meta_bstar": 0.00071774,
        "meta_mean_motion_dot": 1.617e-05,
        "meta_mean_motion_ddot": 0,
        "tle_line1": "1 37280U 93036BHU 25354.83900615  .00001617  00000+0  71774-3 0  9995",
        "tle_line2": "2 37280  74.0316  42.5901 0130313 169.4803 190.9117 14.19354674574385"
      },
      "geometry": {
        "type": "Point",
        "coordinates": [
          37.51803014948451,
          -12.672348977443615
        ]
      }
    },
    {
      "type": "Feature",
      "properties": {
        "norad_id": 37284,
        "name": "COSMOS 2251 DEB",
        "group": "cosmos-2251-debris",
        "lat": 42.8672373526763,
        "lon": -54.40898300911975,
        "alt_km": 951.583459605672,
        "timestamp": "2025-12-21T14:40:48.316356+00:00",
        "meta_object_name": "COSMOS 2251 DEB",
        "meta_object_id": "1993-036BHY",
        "meta_epoch": "2025-12-10T18:04:20.469216",
        "meta_mean_motion": 14.12686618,
        "meta_eccentricity": 0.01605026,
        "meta_inclination": 74.0123,
        "meta_ra_of_asc_node": 160.2425,
        "meta_arg_of_pericenter": 312.4867,
        "meta_mean_anomaly": 59.8736,
        "meta_ephemeris_type": 0,
        "meta_classification_type": "U",
        "meta_norad_cat_id": 37284,
        "meta_element_set_no": 999,
        "meta_rev_at_epoch": 59147,
        "meta_bstar": 0.001592138,
        "meta_mean_motion_dot": 3.31e-05,
        "meta_mean_motion_ddot": 0,
        "tle_line1": "1 37284U 93036BHY 25344.75301469  .00003310  00000+0  15921-2 0  9994",
        "tle_line2": "2 37284  74.0123 160.2425 0160502 312.4867  59.8736 14.12686618591475"
      },
      "geometry": {
        "type": "Point",
        "coordinates": [
          -54.40898300911975,
          42.8672373526763
        ]
      }
    }
  ]
}